<?xml version="1.0" encoding="utf-8"?>
<gpx version="1.1" creator="Viva Ferrata" xmlns:xsi="http://www.w3.org/2001/XMLSchema-instance" xsi:schemaLocation="http://www.topografix.com/GPX/1/1 http://www.topografix.com/GPX/1/1/gpx.xsd" xmlns="http://www.topografix.com/GPX/1/1">
  <trk>
    <name>Via Ferrata Kandersteg-Allmenalp</name>
    <trkseg>
      <trkpt lat="46.48922877" lon="7.66100233">
        <ele>1238.63</ele>
      </trkpt>
      <trkpt lat="46.48931641" lon="7.66105014">
        <ele>1235.9</ele>
      </trkpt>
      <trkpt lat="46.48934933" lon="7.66119989">
        <ele>1235.82</ele>
      </trkpt>
      <trkpt lat="46.48942871" lon="7.66150174">
        <ele>1235.36</ele>
      </trkpt>
      <trkpt lat="46.48944522" lon="7.6615814">
        <ele>1235.18</ele>
      </trkpt>
      <trkpt lat="46.489567" lon="7.66157476">
        <ele>1235.23</ele>
      </trkpt>
      <trkpt lat="46.48966864" lon="7.66157036">
        <ele>1235.45</ele>
      </trkpt>
      <trkpt lat="46.48978127" lon="7.66156908">
        <ele>1236.82</ele>
      </trkpt>
      <trkpt lat="46.48986701" lon="7.66155681">
        <ele>1238.42</ele>
      </trkpt>
      <trkpt lat="46.48988421" lon="7.66155387">
        <ele>1238.69</ele>
      </trkpt>
      <trkpt lat="46.48989224" lon="7.66154322">
        <ele>1238.82</ele>
      </trkpt>
      <trkpt lat="46.48993397" lon="7.66145243">
        <ele>1239.22</ele>
      </trkpt>
      <trkpt lat="46.48998466" lon="7.66135682">
        <ele>1239.62</ele>
      </trkpt>
      <trkpt lat="46.49002907" lon="7.66125963">
        <ele>1240.16</ele>
      </trkpt>
      <trkpt lat="46.4900515" lon="7.66121547">
        <ele>1240.42</ele>
      </trkpt>
      <trkpt lat="46.49006171" lon="7.661203">
        <ele>1240.69</ele>
      </trkpt>
      <trkpt lat="46.4900719" lon="7.66119849">
        <ele>1240.82</ele>
      </trkpt>
      <trkpt lat="46.49012166" lon="7.66122754">
        <ele>1240.72</ele>
      </trkpt>
      <trkpt lat="46.49014824" lon="7.66124178">
        <ele>1240.16</ele>
      </trkpt>
      <trkpt lat="46.49020785" lon="7.66102017">
        <ele>1241.09</ele>
      </trkpt>
      <trkpt lat="46.49022797" lon="7.66095993">
        <ele>1241.23</ele>
      </trkpt>
      <trkpt lat="46.49027983" lon="7.66084919">
        <ele>1241.07</ele>
      </trkpt>
      <trkpt lat="46.49030668" lon="7.66075521">
        <ele>1241.33</ele>
      </trkpt>
      <trkpt lat="46.49033527" lon="7.66061543">
        <ele>1241.93</ele>
      </trkpt>
      <trkpt lat="46.49037568" lon="7.66039366">
        <ele>1243.21</ele>
      </trkpt>
      <trkpt lat="46.49045459" lon="7.66008764">
        <ele>1245.26</ele>
      </trkpt>
      <trkpt lat="46.49047136" lon="7.66002981">
        <ele>1245.95</ele>
      </trkpt>
      <trkpt lat="46.49048893" lon="7.6599982">
        <ele>1246.22</ele>
      </trkpt>
      <trkpt lat="46.4905182" lon="7.65993973">
        <ele>1246.31</ele>
      </trkpt>
      <trkpt lat="46.49054452" lon="7.65987436">
        <ele>1246.33</ele>
      </trkpt>
      <trkpt lat="46.49056248" lon="7.65981499">
        <ele>1246.53</ele>
      </trkpt>
      <trkpt lat="46.49058469" lon="7.65971343">
        <ele>1246.92</ele>
      </trkpt>
      <trkpt lat="46.49059857" lon="7.65961613">
        <ele>1247.22</ele>
      </trkpt>
      <trkpt lat="46.49061559" lon="7.6595383">
        <ele>1247.55</ele>
      </trkpt>
      <trkpt lat="46.490668" lon="7.65940707">
        <ele>1248.27</ele>
      </trkpt>
      <trkpt lat="46.49070267" lon="7.65932191">
        <ele>1248.73</ele>
      </trkpt>
      <trkpt lat="46.49072543" lon="7.65924706">
        <ele>1249.3</ele>
      </trkpt>
      <trkpt lat="46.490744" lon="7.65918166">
        <ele>1249.89</ele>
      </trkpt>
      <trkpt lat="46.49076964" lon="7.65914333">
        <ele>1250.16</ele>
      </trkpt>
      <trkpt lat="46.49081301" lon="7.65911261">
        <ele>1250.31</ele>
      </trkpt>
      <trkpt lat="46.49085301" lon="7.65910553">
        <ele>1250.25</ele>
      </trkpt>
      <trkpt lat="46.491068" lon="7.65907746">
        <ele>1249.73</ele>
      </trkpt>
      <trkpt lat="46.49114975" lon="7.65905539">
        <ele>1249.87</ele>
      </trkpt>
      <trkpt lat="46.49122039" lon="7.65902669">
        <ele>1249.87</ele>
      </trkpt>
      <trkpt lat="46.49131812" lon="7.65896752">
        <ele>1249.65</ele>
      </trkpt>
      <trkpt lat="46.49135988" lon="7.65890979">
        <ele>1249.81</ele>
      </trkpt>
      <trkpt lat="46.49141499" lon="7.65884247">
        <ele>1250.02</ele>
      </trkpt>
      <trkpt lat="46.49151533" lon="7.65871556">
        <ele>1251.1</ele>
      </trkpt>
      <trkpt lat="46.49152301" lon="7.65866167">
        <ele>1251.58</ele>
      </trkpt>
      <trkpt lat="46.4915651" lon="7.65862318">
        <ele>1252.06</ele>
      </trkpt>
      <trkpt lat="46.49158745" lon="7.65859575">
        <ele>1252.69</ele>
      </trkpt>
      <trkpt lat="46.49161523" lon="7.6585625">
        <ele>1253.4</ele>
      </trkpt>
      <trkpt lat="46.49163429" lon="7.6585447">
        <ele>1253.69</ele>
      </trkpt>
      <trkpt lat="46.49165232" lon="7.65852913">
        <ele>1254.03</ele>
      </trkpt>
      <trkpt lat="46.49166932" lon="7.65852027">
        <ele>1254.31</ele>
      </trkpt>
      <trkpt lat="46.49168219" lon="7.6585166">
        <ele>1254.52</ele>
      </trkpt>
      <trkpt lat="46.49169555" lon="7.65851813">
        <ele>1254.85</ele>
      </trkpt>
      <trkpt lat="46.49171046" lon="7.65852639">
        <ele>1255.38</ele>
      </trkpt>
      <trkpt lat="46.49172022" lon="7.65853015">
        <ele>1255.6</ele>
      </trkpt>
      <trkpt lat="46.49173207" lon="7.65852275">
        <ele>1256.12</ele>
      </trkpt>
      <trkpt lat="46.49174442" lon="7.65851536">
        <ele>1256.61</ele>
      </trkpt>
      <trkpt lat="46.49175987" lon="7.6585117">
        <ele>1256.81</ele>
      </trkpt>
      <trkpt lat="46.49177427" lon="7.65851026">
        <ele>1257.12</ele>
      </trkpt>
      <trkpt lat="46.49178661" lon="7.65851181">
        <ele>1257.33</ele>
      </trkpt>
      <trkpt lat="46.49179793" lon="7.65850961">
        <ele>1257.7</ele>
      </trkpt>
      <trkpt lat="46.49180257" lon="7.65850144">
        <ele>1257.96</ele>
      </trkpt>
      <trkpt lat="46.49180774" lon="7.65848806">
        <ele>1258.27</ele>
      </trkpt>
      <trkpt lat="46.4918124" lon="7.65847243">
        <ele>1258.7</ele>
      </trkpt>
      <trkpt lat="46.4918222" lon="7.65845981">
        <ele>1259.13</ele>
      </trkpt>
      <trkpt lat="46.49183508" lon="7.6584487">
        <ele>1259.61</ele>
      </trkpt>
      <trkpt lat="46.49185259" lon="7.65844132">
        <ele>1260.4</ele>
      </trkpt>
      <trkpt lat="46.49186493" lon="7.65843913">
        <ele>1260.97</ele>
      </trkpt>
      <trkpt lat="46.49187317" lon="7.65843544">
        <ele>1261.33</ele>
      </trkpt>
      <trkpt lat="46.4918773" lon="7.65842578">
        <ele>1261.63</ele>
      </trkpt>
      <trkpt lat="46.49187887" lon="7.65841239">
        <ele>1261.81</ele>
      </trkpt>
      <trkpt lat="46.49188022" lon="7.65837725">
        <ele>1263.13</ele>
      </trkpt>
      <trkpt lat="46.49187776" lon="7.65835657">
        <ele>1263.72</ele>
      </trkpt>
      <trkpt lat="46.49187314" lon="7.65834311">
        <ele>1263.55</ele>
      </trkpt>
      <trkpt lat="46.49186668" lon="7.65832967">
        <ele>1263.15</ele>
      </trkpt>
      <trkpt lat="46.49186261" lon="7.65830954">
        <ele>1263.03</ele>
      </trkpt>
      <trkpt lat="46.49186008" lon="7.65828868">
        <ele>1263.27</ele>
      </trkpt>
      <trkpt lat="46.49185344" lon="7.65826631">
        <ele>1263.14</ele>
      </trkpt>
      <trkpt lat="46.49185295" lon="7.65825291">
        <ele>1263.21</ele>
      </trkpt>
      <trkpt lat="46.49185915" lon="7.65823655">
        <ele>1263.52</ele>
      </trkpt>
      <trkpt lat="46.49186638" lon="7.65822019">
        <ele>1264.06</ele>
      </trkpt>
      <trkpt lat="46.49187363" lon="7.65819639">
        <ele>1264.82</ele>
      </trkpt>
      <trkpt lat="46.49187779" lon="7.65817183">
        <ele>1265.75</ele>
      </trkpt>
      <trkpt lat="46.49187784" lon="7.65814428">
        <ele>1266.3</ele>
      </trkpt>
      <trkpt lat="46.49187998" lon="7.65810631">
        <ele>1267.9</ele>
      </trkpt>
      <trkpt lat="46.49188518" lon="7.65807729">
        <ele>1268.69</ele>
      </trkpt>
      <trkpt lat="46.49188625" lon="7.65805569">
        <ele>1269.49</ele>
      </trkpt>
      <trkpt lat="46.49188268" lon="7.65803705">
        <ele>1270.22</ele>
      </trkpt>
      <trkpt lat="46.49187411" lon="7.65802831">
        <ele>1270.39</ele>
      </trkpt>
      <trkpt lat="46.49186233" lon="7.65802671">
        <ele>1270</ele>
      </trkpt>
      <trkpt lat="46.49185198" lon="7.65802564">
        <ele>1269.99</ele>
      </trkpt>
      <trkpt lat="46.49184105" lon="7.65801976">
        <ele>1269.5</ele>
      </trkpt>
      <trkpt lat="46.49183095" lon="7.65800798">
        <ele>1269.66</ele>
      </trkpt>
      <trkpt lat="46.49182313" lon="7.65799141">
        <ele>1270.38</ele>
      </trkpt>
      <trkpt lat="46.49181923" lon="7.65797381">
        <ele>1271.06</ele>
      </trkpt>
      <trkpt lat="46.49181391" lon="7.65795622">
        <ele>1271.85</ele>
      </trkpt>
      <trkpt lat="46.4918043" lon="7.65794015">
        <ele>1272.34</ele>
      </trkpt>
      <trkpt lat="46.49179007" lon="7.65791735">
        <ele>1273.05</ele>
      </trkpt>
      <trkpt lat="46.4917801" lon="7.65790491">
        <ele>1273.09</ele>
      </trkpt>
      <trkpt lat="46.49177296" lon="7.65790229">
        <ele>1272.98</ele>
      </trkpt>
      <trkpt lat="46.4917594" lon="7.65790275">
        <ele>1272.41</ele>
      </trkpt>
      <trkpt lat="46.49175012" lon="7.65789652">
        <ele>1272.46</ele>
      </trkpt>
      <trkpt lat="46.49174372" lon="7.65788718">
        <ele>1272.82</ele>
      </trkpt>
      <trkpt lat="46.49173697" lon="7.65786648">
        <ele>1273.9</ele>
      </trkpt>
      <trkpt lat="46.49172701" lon="7.6578468">
        <ele>1275.51</ele>
      </trkpt>
      <trkpt lat="46.49171884" lon="7.65782661">
        <ele>1276.27</ele>
      </trkpt>
      <trkpt lat="46.4917107" lon="7.65779452">
        <ele>1277.52</ele>
      </trkpt>
      <trkpt lat="46.49170324" lon="7.65777072">
        <ele>1278.85</ele>
      </trkpt>
      <trkpt lat="46.49169398" lon="7.6577562">
        <ele>1279.56</ele>
      </trkpt>
      <trkpt lat="46.49168223" lon="7.65774427">
        <ele>1280.19</ele>
      </trkpt>
      <trkpt lat="46.49166226" lon="7.6577323">
        <ele>1280.48</ele>
      </trkpt>
      <trkpt lat="46.49164443" lon="7.65772034">
        <ele>1280.72</ele>
      </trkpt>
      <trkpt lat="46.49164052" lon="7.65770895">
        <ele>1281.33</ele>
      </trkpt>
      <trkpt lat="46.49164161" lon="7.65769964">
        <ele>1281.95</ele>
      </trkpt>
      <trkpt lat="46.49164734" lon="7.65769347">
        <ele>1282.42</ele>
      </trkpt>
      <trkpt lat="46.49165446" lon="7.65769282">
        <ele>1282.76</ele>
      </trkpt>
      <trkpt lat="46.49166423" lon="7.6576951">
        <ele>1283.27</ele>
      </trkpt>
      <trkpt lat="46.4916817" lon="7.6577041">
        <ele>1283.13</ele>
      </trkpt>
      <trkpt lat="46.49169586" lon="7.65770968">
        <ele>1283.14</ele>
      </trkpt>
      <trkpt lat="46.49170693" lon="7.65771077">
        <ele>1283.11</ele>
      </trkpt>
      <trkpt lat="46.49171193" lon="7.65770769">
        <ele>1283.51</ele>
      </trkpt>
      <trkpt lat="46.49171552" lon="7.65769788">
        <ele>1284.22</ele>
      </trkpt>
      <trkpt lat="46.49171518" lon="7.65768857">
        <ele>1284.71</ele>
      </trkpt>
      <trkpt lat="46.49171164" lon="7.65767253">
        <ele>1285.62</ele>
      </trkpt>
      <trkpt lat="46.49170384" lon="7.65764614">
        <ele>1287.29</ele>
      </trkpt>
      <trkpt lat="46.49169994" lon="7.65763216">
        <ele>1288.05</ele>
      </trkpt>
      <trkpt lat="46.49170316" lon="7.65762495">
        <ele>1288.53</ele>
      </trkpt>
      <trkpt lat="46.49170853" lon="7.6576198">
        <ele>1288.95</ele>
      </trkpt>
      <trkpt lat="46.49171532" lon="7.65761518">
        <ele>1289.34</ele>
      </trkpt>
      <trkpt lat="46.49172213" lon="7.65760434">
        <ele>1290.01</ele>
      </trkpt>
      <trkpt lat="46.49172823" lon="7.65758732">
        <ele>1291.16</ele>
      </trkpt>
      <trkpt lat="46.49173469" lon="7.65756769">
        <ele>1293.9</ele>
      </trkpt>
      <trkpt lat="46.49173758" lon="7.65754961">
        <ele>1296.93</ele>
      </trkpt>
      <trkpt lat="46.49173761" lon="7.65753617">
        <ele>1298.28</ele>
      </trkpt>
      <trkpt lat="46.49173482" lon="7.65750412">
        <ele>1299.09</ele>
      </trkpt>
      <trkpt lat="46.49172782" lon="7.6574312">
        <ele>1301.49</ele>
      </trkpt>
      <trkpt lat="46.49172718" lon="7.6573945">
        <ele>1303.04</ele>
      </trkpt>
      <trkpt lat="46.49172838" lon="7.65736463">
        <ele>1302.55</ele>
      </trkpt>
      <trkpt lat="46.49172964" lon="7.65731276">
        <ele>1307.59</ele>
      </trkpt>
      <trkpt lat="46.49172779" lon="7.65727804">
        <ele>1310.17</ele>
      </trkpt>
      <trkpt lat="46.49172544" lon="7.65725097">
        <ele>1308.73</ele>
      </trkpt>
      <trkpt lat="46.49171689" lon="7.65721068">
        <ele>1305.49</ele>
      </trkpt>
      <trkpt lat="46.49170259" lon="7.65716342">
        <ele>1305.14</ele>
      </trkpt>
      <trkpt lat="46.49169258" lon="7.65713421">
        <ele>1303.78</ele>
      </trkpt>
      <trkpt lat="46.49169122" lon="7.65709672">
        <ele>1303.75</ele>
      </trkpt>
      <trkpt lat="46.49169126" lon="7.65707383">
        <ele>1304.39</ele>
      </trkpt>
      <trkpt lat="46.4916889" lon="7.65705576">
        <ele>1304.65</ele>
      </trkpt>
      <trkpt lat="46.49167649" lon="7.65702586">
        <ele>1303.85</ele>
      </trkpt>
      <trkpt lat="46.49163615" lon="7.65696287">
        <ele>1304.43</ele>
      </trkpt>
      <trkpt lat="46.4916401" lon="7.65694533">
        <ele>1305.46</ele>
      </trkpt>
      <trkpt lat="46.4916504" lon="7.65692043">
        <ele>1308.78</ele>
      </trkpt>
      <trkpt lat="46.49165075" lon="7.65690313">
        <ele>1313.43</ele>
      </trkpt>
      <trkpt lat="46.49166012" lon="7.65689782">
        <ele>1326.1</ele>
      </trkpt>
      <trkpt lat="46.4916975" lon="7.65690619">
        <ele>1331.25</ele>
      </trkpt>
      <trkpt lat="46.49171189" lon="7.65687268">
        <ele>1341.5</ele>
      </trkpt>
      <trkpt lat="46.49171727" lon="7.6568604">
        <ele>1350.56</ele>
      </trkpt>
      <trkpt lat="46.4917116" lon="7.65680691">
        <ele>1351.17</ele>
      </trkpt>
      <trkpt lat="46.49170579" lon="7.65677517">
        <ele>1351.44</ele>
      </trkpt>
      <trkpt lat="46.49168485" lon="7.65674311">
        <ele>1352.4</ele>
      </trkpt>
      <trkpt lat="46.49165863" lon="7.65670522">
        <ele>1353.28</ele>
      </trkpt>
      <trkpt lat="46.49164234" lon="7.65668258">
        <ele>1354.23</ele>
      </trkpt>
      <trkpt lat="46.49161604" lon="7.65667094">
        <ele>1356.27</ele>
      </trkpt>
      <trkpt lat="46.49159729" lon="7.65666107">
        <ele>1358.17</ele>
      </trkpt>
      <trkpt lat="46.49158229" lon="7.65664247">
        <ele>1358.85</ele>
      </trkpt>
      <trkpt lat="46.4915624" lon="7.6566103">
        <ele>1359.39</ele>
      </trkpt>
      <trkpt lat="46.49153353" lon="7.6565922">
        <ele>1361.97</ele>
      </trkpt>
      <trkpt lat="46.49150259" lon="7.65658073">
        <ele>1367.06</ele>
      </trkpt>
      <trkpt lat="46.491479" lon="7.65657009">
        <ele>1367.74</ele>
      </trkpt>
      <trkpt lat="46.49146304" lon="7.65657561">
        <ele>1368.82</ele>
      </trkpt>
      <trkpt lat="46.49146138" lon="7.65655875">
        <ele>1370.35</ele>
      </trkpt>
      <trkpt lat="46.49146122" lon="7.65651916">
        <ele>1375</ele>
      </trkpt>
      <trkpt lat="46.49146516" lon="7.65647689">
        <ele>1379.65</ele>
      </trkpt>
      <trkpt lat="46.4914754" lon="7.65645236">
        <ele>1383.35</ele>
      </trkpt>
      <trkpt lat="46.49148617" lon="7.65646113">
        <ele>1386.23</ele>
      </trkpt>
      <trkpt lat="46.49151412" lon="7.65647458">
        <ele>1387.84</ele>
      </trkpt>
      <trkpt lat="46.49151863" lon="7.65644065">
        <ele>1390.53</ele>
      </trkpt>
      <trkpt lat="46.49151153" lon="7.65640773">
        <ele>1392.47</ele>
      </trkpt>
      <trkpt lat="46.49144632" lon="7.65616691">
        <ele>1394.55</ele>
      </trkpt>
      <trkpt lat="46.49144524" lon="7.65613246">
        <ele>1395.16</ele>
      </trkpt>
      <trkpt lat="46.49145394" lon="7.65606549">
        <ele>1397.09</ele>
      </trkpt>
      <trkpt lat="46.49144494" lon="7.6560485">
        <ele>1398.08</ele>
      </trkpt>
      <trkpt lat="46.49142834" lon="7.65603223">
        <ele>1398.41</ele>
      </trkpt>
      <trkpt lat="46.49143635" lon="7.65599308">
        <ele>1400.24</ele>
      </trkpt>
      <trkpt lat="46.49142763" lon="7.65597841">
        <ele>1400.91</ele>
      </trkpt>
      <trkpt lat="46.49140288" lon="7.65595246">
        <ele>1401.9</ele>
      </trkpt>
      <trkpt lat="46.49135654" lon="7.6559175">
        <ele>1402.23</ele>
      </trkpt>
      <trkpt lat="46.4913519" lon="7.65590785">
        <ele>1402.9</ele>
      </trkpt>
      <trkpt lat="46.49140947" lon="7.65590445">
        <ele>1404.56</ele>
      </trkpt>
      <trkpt lat="46.4914241" lon="7.65589611">
        <ele>1405.22</ele>
      </trkpt>
      <trkpt lat="46.49143205" lon="7.65587965">
        <ele>1405.72</ele>
      </trkpt>
      <trkpt lat="46.49140761" lon="7.65584793">
        <ele>1407.55</ele>
      </trkpt>
      <trkpt lat="46.49139486" lon="7.65581362">
        <ele>1408.88</ele>
      </trkpt>
      <trkpt lat="46.49141768" lon="7.65580764">
        <ele>1409.71</ele>
      </trkpt>
      <trkpt lat="46.4914218" lon="7.65579806">
        <ele>1410.04</ele>
      </trkpt>
      <trkpt lat="46.49137722" lon="7.65575889">
        <ele>1411.86</ele>
      </trkpt>
      <trkpt lat="46.49136236" lon="7.65574571">
        <ele>1412.7</ele>
      </trkpt>
      <trkpt lat="46.4914329" lon="7.65570705">
        <ele>1416.18</ele>
      </trkpt>
      <trkpt lat="46.4914344" lon="7.65569591">
        <ele>1416.35</ele>
      </trkpt>
      <trkpt lat="46.49141398" lon="7.65568499">
        <ele>1417.51</ele>
      </trkpt>
      <trkpt lat="46.49139128" lon="7.65565867">
        <ele>1418.67</ele>
      </trkpt>
      <trkpt lat="46.49137204" lon="7.65564352">
        <ele>1419.5</ele>
      </trkpt>
      <trkpt lat="46.4913671" lon="7.65563581">
        <ele>1419.67</ele>
      </trkpt>
      <trkpt lat="46.49138994" lon="7.65562252">
        <ele>1420.5</ele>
      </trkpt>
      <trkpt lat="46.49139099" lon="7.65560976">
        <ele>1421.14</ele>
      </trkpt>
      <trkpt lat="46.49134489" lon="7.65558185">
        <ele>1423.25</ele>
      </trkpt>
      <trkpt lat="46.49134606" lon="7.65558842">
        <ele>1430.75</ele>
      </trkpt>
      <trkpt lat="46.49127503" lon="7.65558983">
        <ele>1438.93</ele>
      </trkpt>
      <trkpt lat="46.49125866" lon="7.65558911">
        <ele>1441.48</ele>
      </trkpt>
      <trkpt lat="46.49122435" lon="7.65557611">
        <ele>1444.55</ele>
      </trkpt>
      <trkpt lat="46.49124528" lon="7.65556848">
        <ele>1447.96</ele>
      </trkpt>
      <trkpt lat="46.4912816" lon="7.655582">
        <ele>1454.09</ele>
      </trkpt>
      <trkpt lat="46.49126325" lon="7.65556471">
        <ele>1457.84</ele>
      </trkpt>
      <trkpt lat="46.49121219" lon="7.65554155">
        <ele>1461.25</ele>
      </trkpt>
      <trkpt lat="46.49122252" lon="7.65553768">
        <ele>1464.32</ele>
      </trkpt>
      <trkpt lat="46.49123798" lon="7.6555283">
        <ele>1465.36</ele>
      </trkpt>
      <trkpt lat="46.49126202" lon="7.65550657">
        <ele>1466.96</ele>
      </trkpt>
      <trkpt lat="46.49127822" lon="7.65550317">
        <ele>1467.52</ele>
      </trkpt>
      <trkpt lat="46.49130287" lon="7.65550612">
        <ele>1468.43</ele>
      </trkpt>
      <trkpt lat="46.4913248" lon="7.65549945">
        <ele>1469.33</ele>
      </trkpt>
      <trkpt lat="46.49133604" lon="7.65549355">
        <ele>1470.3</ele>
      </trkpt>
      <trkpt lat="46.49136033" lon="7.65550097">
        <ele>1470.51</ele>
      </trkpt>
      <trkpt lat="46.49137155" lon="7.65550681">
        <ele>1472.46</ele>
      </trkpt>
      <trkpt lat="46.4913816" lon="7.65550639">
        <ele>1473.99</ele>
      </trkpt>
      <trkpt lat="46.4914424" lon="7.65549782">
        <ele>1477.52</ele>
      </trkpt>
      <trkpt lat="46.4914627" lon="7.65548801">
        <ele>1481.46</ele>
      </trkpt>
      <trkpt lat="46.49149055" lon="7.65546053">
        <ele>1484.52</ele>
      </trkpt>
      <trkpt lat="46.49151664" lon="7.65545589">
        <ele>1487.49</ele>
      </trkpt>
      <trkpt lat="46.49155076" lon="7.65544279">
        <ele>1489.85</ele>
      </trkpt>
      <trkpt lat="46.49156666" lon="7.65543379">
        <ele>1491.48</ele>
      </trkpt>
      <trkpt lat="46.49156861" lon="7.65542019">
        <ele>1494.65</ele>
      </trkpt>
      <trkpt lat="46.49157703" lon="7.65541542">
        <ele>1495.17</ele>
      </trkpt>
      <trkpt lat="46.49157511" lon="7.65539699">
        <ele>1496.29</ele>
      </trkpt>
      <trkpt lat="46.49156296" lon="7.65537187">
        <ele>1497.93</ele>
      </trkpt>
      <trkpt lat="46.49154174" lon="7.65536436">
        <ele>1502.44</ele>
      </trkpt>
      <trkpt lat="46.49152267" lon="7.65536431">
        <ele>1506.78</ele>
      </trkpt>
      <trkpt lat="46.49148741" lon="7.65536933">
        <ele>1512.87</ele>
      </trkpt>
      <trkpt lat="46.49145736" lon="7.65535806">
        <ele>1519.18</ele>
      </trkpt>
      <trkpt lat="46.49143309" lon="7.65537084">
        <ele>1522.52</ele>
      </trkpt>
      <trkpt lat="46.49142154" lon="7.65535709">
        <ele>1526.68</ele>
      </trkpt>
      <trkpt lat="46.49139842" lon="7.65535271">
        <ele>1531.16</ele>
      </trkpt>
      <trkpt lat="46.49136719" lon="7.65534316">
        <ele>1534.05</ele>
      </trkpt>
      <trkpt lat="46.49135507" lon="7.65535684">
        <ele>1535.6</ele>
      </trkpt>
      <trkpt lat="46.4913308" lon="7.65536448">
        <ele>1537.93</ele>
      </trkpt>
      <trkpt lat="46.49132097" lon="7.65534815">
        <ele>1538.94</ele>
      </trkpt>
      <trkpt lat="46.49127589" lon="7.6553394">
        <ele>1542.74</ele>
      </trkpt>
      <trkpt lat="46.4912204" lon="7.65532805">
        <ele>1550.79</ele>
      </trkpt>
      <trkpt lat="46.49119495" lon="7.65530223">
        <ele>1552.76</ele>
      </trkpt>
      <trkpt lat="46.49115567" lon="7.65531666">
        <ele>1557.97</ele>
      </trkpt>
      <trkpt lat="46.49110539" lon="7.65533194">
        <ele>1565.61</ele>
      </trkpt>
      <trkpt lat="46.49110595" lon="7.65527104">
        <ele>1573.43</ele>
      </trkpt>
      <trkpt lat="46.49109146" lon="7.6551912">
        <ele>1582.81</ele>
      </trkpt>
      <trkpt lat="46.49108292" lon="7.65514314">
        <ele>1585.6</ele>
      </trkpt>
      <trkpt lat="46.49105747" lon="7.65513702">
        <ele>1585.53</ele>
      </trkpt>
      <trkpt lat="46.49113267" lon="7.65484258">
        <ele>1588.55</ele>
      </trkpt>
      <trkpt lat="46.49112791" lon="7.65481937">
        <ele>1591.68</ele>
      </trkpt>
      <trkpt lat="46.49115691" lon="7.65482205">
        <ele>1592.72</ele>
      </trkpt>
      <trkpt lat="46.49116439" lon="7.65481654">
        <ele>1593.28</ele>
      </trkpt>
      <trkpt lat="46.49111677" lon="7.65479642">
        <ele>1598.84</ele>
      </trkpt>
      <trkpt lat="46.49115476" lon="7.65479384">
        <ele>1601.13</ele>
      </trkpt>
      <trkpt lat="46.49116399" lon="7.6547694">
        <ele>1603.85</ele>
      </trkpt>
      <trkpt lat="46.49117722" lon="7.65475056">
        <ele>1603.5</ele>
      </trkpt>
      <trkpt lat="46.49119073" lon="7.65476092">
        <ele>1603.5</ele>
      </trkpt>
      <trkpt lat="46.49121091" lon="7.65476006">
        <ele>1604.54</ele>
      </trkpt>
      <trkpt lat="46.49123691" lon="7.65475557">
        <ele>1605.24</ele>
      </trkpt>
      <trkpt lat="46.49124184" lon="7.65474988">
        <ele>1605.79</ele>
      </trkpt>
      <trkpt lat="46.49122714" lon="7.6547417">
        <ele>1607.25</ele>
      </trkpt>
      <trkpt lat="46.49124967" lon="7.65472824">
        <ele>1609.41</ele>
      </trkpt>
      <trkpt lat="46.49126578" lon="7.65472692">
        <ele>1609.9</ele>
      </trkpt>
      <trkpt lat="46.49129311" lon="7.65472329">
        <ele>1611.71</ele>
      </trkpt>
      <trkpt lat="46.49131792" lon="7.65470761">
        <ele>1613.24</ele>
      </trkpt>
      <trkpt lat="46.49132411" lon="7.65470126">
        <ele>1614.42</ele>
      </trkpt>
      <trkpt lat="46.49132247" lon="7.65468977">
        <ele>1616.71</ele>
      </trkpt>
      <trkpt lat="46.49129574" lon="7.65469153">
        <ele>1618.1</ele>
      </trkpt>
      <trkpt lat="46.49128511" lon="7.6546853">
        <ele>1621.23</ele>
      </trkpt>
      <trkpt lat="46.49126346" lon="7.65467255">
        <ele>1626.52</ele>
      </trkpt>
      <trkpt lat="46.49123933" lon="7.65468273">
        <ele>1627.56</ele>
      </trkpt>
      <trkpt lat="46.49122012" lon="7.65469392">
        <ele>1630.41</ele>
      </trkpt>
      <trkpt lat="46.49120231" lon="7.65469561">
        <ele>1633.96</ele>
      </trkpt>
      <trkpt lat="46.4911863" lon="7.65468657">
        <ele>1635.77</ele>
      </trkpt>
      <trkpt lat="46.49117019" lon="7.65468118">
        <ele>1637.37</ele>
      </trkpt>
      <trkpt lat="46.49115919" lon="7.65467529">
        <ele>1640.22</ele>
      </trkpt>
      <trkpt lat="46.49116081" lon="7.65466514">
        <ele>1644.29</ele>
      </trkpt>
      <trkpt lat="46.49115706" lon="7.65465326">
        <ele>1645.54</ele>
      </trkpt>
      <trkpt lat="46.49114702" lon="7.65460664">
        <ele>1649.86</ele>
      </trkpt>
      <trkpt lat="46.49114652" lon="7.65459126">
        <ele>1650.69</ele>
      </trkpt>
      <trkpt lat="46.4911298" lon="7.65455303">
        <ele>1652.17</ele>
      </trkpt>
      <trkpt lat="46.49110841" lon="7.65448611">
        <ele>1654.65</ele>
      </trkpt>
      <trkpt lat="46.49109906" lon="7.6544357">
        <ele>1657.79</ele>
      </trkpt>
      <trkpt lat="46.49109072" lon="7.65440627">
        <ele>1659.6</ele>
      </trkpt>
      <trkpt lat="46.49107188" lon="7.65437852">
        <ele>1661.75</ele>
      </trkpt>
      <trkpt lat="46.49107669" lon="7.65433066">
        <ele>1663.89</ele>
      </trkpt>
      <trkpt lat="46.49106651" lon="7.65430227">
        <ele>1665.05</ele>
      </trkpt>
      <trkpt lat="46.49105317" lon="7.6542819">
        <ele>1666.53</ele>
      </trkpt>
      <trkpt lat="46.49103393" lon="7.6542642">
        <ele>1667.88</ele>
      </trkpt>
      <trkpt lat="46.49103596" lon="7.65425126">
        <ele>1668.54</ele>
      </trkpt>
      <trkpt lat="46.49104807" lon="7.65423698">
        <ele>1669.12</ele>
      </trkpt>
      <trkpt lat="46.4910503" lon="7.65422665">
        <ele>1669.7</ele>
      </trkpt>
      <trkpt lat="46.49103439" lon="7.65421067">
        <ele>1670.49</ele>
      </trkpt>
      <trkpt lat="46.49101904" lon="7.65418753">
        <ele>1671.73</ele>
      </trkpt>
      <trkpt lat="46.4910114" lon="7.65416284">
        <ele>1672.9</ele>
      </trkpt>
      <trkpt lat="46.49101965" lon="7.65415651">
        <ele>1673.25</ele>
      </trkpt>
      <trkpt lat="46.49103343" lon="7.65413507">
        <ele>1674.25</ele>
      </trkpt>
      <trkpt lat="46.49104827" lon="7.65413275">
        <ele>1674.32</ele>
      </trkpt>
      <trkpt lat="46.49106807" lon="7.65413044">
        <ele>1674.67</ele>
      </trkpt>
      <trkpt lat="46.49108181" lon="7.6541289">
        <ele>1674.96</ele>
      </trkpt>
      <trkpt lat="46.49109717" lon="7.65414487">
        <ele>1674.56</ele>
      </trkpt>
      <trkpt lat="46.49111584" lon="7.65415132">
        <ele>1675</ele>
      </trkpt>
      <trkpt lat="46.49113272" lon="7.65414897">
        <ele>1675.8</ele>
      </trkpt>
      <trkpt lat="46.49114467" lon="7.65412834">
        <ele>1676.52</ele>
      </trkpt>
      <trkpt lat="46.49118996" lon="7.65405627">
        <ele>1679.38</ele>
      </trkpt>
      <trkpt lat="46.49127234" lon="7.65396593">
        <ele>1682.9</ele>
      </trkpt>
      <trkpt lat="46.49135613" lon="7.65388857">
        <ele>1685.82</ele>
      </trkpt>
      <trkpt lat="46.49144141" lon="7.65386152">
        <ele>1687.8</ele>
      </trkpt>
      <trkpt lat="46.49153188" lon="7.65367017">
        <ele>1696.1</ele>
      </trkpt>
      <trkpt lat="46.49153173" lon="7.65364814">
        <ele>1696.97</ele>
      </trkpt>
      <trkpt lat="46.49151282" lon="7.6536348">
        <ele>1697.67</ele>
      </trkpt>
      <trkpt lat="46.491506" lon="7.65362141">
        <ele>1698.29</ele>
      </trkpt>
      <trkpt lat="46.49151021" lon="7.65359773">
        <ele>1699.16</ele>
      </trkpt>
      <trkpt lat="46.49149298" lon="7.65358216">
        <ele>1700.02</ele>
      </trkpt>
      <trkpt lat="46.49147634" lon="7.65357348">
        <ele>1700.29</ele>
      </trkpt>
      <trkpt lat="46.49147578" lon="7.65355581">
        <ele>1700.89</ele>
      </trkpt>
      <trkpt lat="46.49149007" lon="7.65354597">
        <ele>1701.23</ele>
      </trkpt>
      <trkpt lat="46.49149159" lon="7.65353089">
        <ele>1701.53</ele>
      </trkpt>
      <trkpt lat="46.49147674" lon="7.65351748">
        <ele>1702.3</ele>
      </trkpt>
      <trkpt lat="46.4914744" lon="7.65349981">
        <ele>1702.91</ele>
      </trkpt>
      <trkpt lat="46.49147059" lon="7.65347008">
        <ele>1703.87</ele>
      </trkpt>
      <trkpt lat="46.49146408" lon="7.65344894">
        <ele>1704.44</ele>
      </trkpt>
      <trkpt lat="46.49142466" lon="7.65336867">
        <ele>1704.87</ele>
      </trkpt>
      <trkpt lat="46.49138461" lon="7.65330604">
        <ele>1705.17</ele>
      </trkpt>
      <trkpt lat="46.49137011" lon="7.65326808">
        <ele>1706.02</ele>
      </trkpt>
      <trkpt lat="46.49135827" lon="7.65323272">
        <ele>1706.93</ele>
      </trkpt>
      <trkpt lat="46.49134393" lon="7.65318653">
        <ele>1707.8</ele>
      </trkpt>
      <trkpt lat="46.49134621" lon="7.6531761">
        <ele>1707.94</ele>
      </trkpt>
      <trkpt lat="46.49136142" lon="7.65316173">
        <ele>1708.62</ele>
      </trkpt>
      <trkpt lat="46.49138137" lon="7.65311152">
        <ele>1710.15</ele>
      </trkpt>
      <trkpt lat="46.49139248" lon="7.65306845">
        <ele>1711</ele>
      </trkpt>
      <trkpt lat="46.4913942" lon="7.65303014">
        <ele>1711.45</ele>
      </trkpt>
      <trkpt lat="46.49139923" lon="7.65299424">
        <ele>1711.89</ele>
      </trkpt>
      <trkpt lat="46.49141419" lon="7.65295917">
        <ele>1712.96</ele>
      </trkpt>
      <trkpt lat="46.49142533" lon="7.65290015">
        <ele>1713.8</ele>
      </trkpt>
      <trkpt lat="46.49143698" lon="7.65286107">
        <ele>1714.89</ele>
      </trkpt>
      <trkpt lat="46.4914569" lon="7.65282044">
        <ele>1714.96</ele>
      </trkpt>
      <trkpt lat="46.49146136" lon="7.6527973">
        <ele>1714.85</ele>
      </trkpt>
      <trkpt lat="46.49146586" lon="7.65274943">
        <ele>1715.06</ele>
      </trkpt>
      <trkpt lat="46.49146538" lon="7.6527127">
        <ele>1715.02</ele>
      </trkpt>
      <trkpt lat="46.49147537" lon="7.65267202">
        <ele>1715.43</ele>
      </trkpt>
      <trkpt lat="46.49147379" lon="7.6526369">
        <ele>1716.03</ele>
      </trkpt>
      <trkpt lat="46.49147714" lon="7.65261376">
        <ele>1716.65</ele>
      </trkpt>
      <trkpt lat="46.4914855" lon="7.6525619">
        <ele>1718.11</ele>
      </trkpt>
      <trkpt lat="46.49149111" lon="7.65251164">
        <ele>1719.53</ele>
      </trkpt>
      <trkpt lat="46.4915" lon="7.65247575">
        <ele>1720.84</ele>
      </trkpt>
      <trkpt lat="46.49150069" lon="7.65243952">
        <ele>1721.64</ele>
      </trkpt>
      <trkpt lat="46.49150889" lon="7.65241406">
        <ele>1722.75</ele>
      </trkpt>
      <trkpt lat="46.49151715" lon="7.65235032">
        <ele>1724.61</ele>
      </trkpt>
      <trkpt lat="46.49153467" lon="7.65231855">
        <ele>1726.1</ele>
      </trkpt>
      <trkpt lat="46.49153415" lon="7.65228824">
        <ele>1726.47</ele>
      </trkpt>
      <trkpt lat="46.49155164" lon="7.65227002">
        <ele>1727.58</ele>
      </trkpt>
      <trkpt lat="46.49155754" lon="7.6522238">
        <ele>1729.06</ele>
      </trkpt>
      <trkpt lat="46.49155642" lon="7.65219749">
        <ele>1730.18</ele>
      </trkpt>
      <trkpt lat="46.49156175" lon="7.65214808">
        <ele>1731.66</ele>
      </trkpt>
      <trkpt lat="46.49157928" lon="7.65211072">
        <ele>1733.15</ele>
      </trkpt>
      <trkpt lat="46.49157872" lon="7.65209636">
        <ele>1733.89</ele>
      </trkpt>
      <trkpt lat="46.49156715" lon="7.65205323">
        <ele>1735.01</ele>
      </trkpt>
      <trkpt lat="46.49154578" lon="7.6519566">
        <ele>1737.6</ele>
      </trkpt>
      <trkpt lat="46.49158018" lon="7.65192812">
        <ele>1738.72</ele>
      </trkpt>
      <trkpt lat="46.49160988" lon="7.65192115">
        <ele>1739.46</ele>
      </trkpt>
      <trkpt lat="46.49164949" lon="7.65190227">
        <ele>1740.57</ele>
      </trkpt>
      <trkpt lat="46.49170837" lon="7.65185803">
        <ele>1742.06</ele>
      </trkpt>
      <trkpt lat="46.49171479" lon="7.65184452">
        <ele>1742.43</ele>
      </trkpt>
      <trkpt lat="46.49174055" lon="7.65176415">
        <ele>1743.92</ele>
      </trkpt>
      <trkpt lat="46.49180185" lon="7.6516649">
        <ele>1745.77</ele>
      </trkpt>
      <trkpt lat="46.49185256" lon="7.65158524">
        <ele>1747.17</ele>
      </trkpt>
      <trkpt lat="46.49189451" lon="7.65151227">
        <ele>1748.31</ele>
      </trkpt>
      <trkpt lat="46.49195043" lon="7.65143735">
        <ele>1750.17</ele>
      </trkpt>
      <trkpt lat="46.49197205" lon="7.65139395">
        <ele>1750.73</ele>
      </trkpt>
      <trkpt lat="46.49199495" lon="7.65132883">
        <ele>1751.64</ele>
      </trkpt>
      <trkpt lat="46.49202803" lon="7.65124398">
        <ele>1752.78</ele>
      </trkpt>
      <trkpt lat="46.49206873" lon="7.65116508">
        <ele>1754.06</ele>
      </trkpt>
      <trkpt lat="46.49209033" lon="7.6511355">
        <ele>1754.72</ele>
      </trkpt>
      <trkpt lat="46.49211954" lon="7.65110791">
        <ele>1755.51</ele>
      </trkpt>
      <trkpt lat="46.49215382" lon="7.65108627">
        <ele>1756.52</ele>
      </trkpt>
      <trkpt lat="46.49220844" lon="7.65104887">
        <ele>1758.34</ele>
      </trkpt>
      <trkpt lat="46.49223257" lon="7.65103312">
        <ele>1759.03</ele>
      </trkpt>
      <trkpt lat="46.49224528" lon="7.65101341">
        <ele>1759.59</ele>
      </trkpt>
      <trkpt lat="46.49225798" lon="7.65099566">
        <ele>1760.06</ele>
      </trkpt>
      <trkpt lat="46.49227581" lon="7.65093842">
        <ele>1761.07</ele>
      </trkpt>
      <trkpt lat="46.49229621" lon="7.6508417">
        <ele>1761.96</ele>
      </trkpt>
      <trkpt lat="46.49232045" lon="7.65070747">
        <ele>1763.87</ele>
      </trkpt>
      <trkpt lat="46.49233837" lon="7.65056531">
        <ele>1765.97</ele>
      </trkpt>
      <trkpt lat="46.49234993" lon="7.65042117">
        <ele>1767.93</ele>
      </trkpt>
      <trkpt lat="46.49235509" lon="7.65032639">
        <ele>1769.25</ele>
      </trkpt>
      <trkpt lat="46.49238189" lon="7.65017636">
        <ele>1770.1</ele>
      </trkpt>
      <trkpt lat="46.49239471" lon="7.65004605">
        <ele>1770.92</ele>
      </trkpt>
      <trkpt lat="46.49239604" lon="7.64998482">
        <ele>1771.37</ele>
      </trkpt>
      <trkpt lat="46.49239354" lon="7.64993544">
        <ele>1771.88</ele>
      </trkpt>
      <trkpt lat="46.49238725" lon="7.64987619">
        <ele>1772.52</ele>
      </trkpt>
      <trkpt lat="46.49235376" lon="7.64978989">
        <ele>1773.73</ele>
      </trkpt>
      <trkpt lat="46.49234139" lon="7.64977066">
        <ele>1774.07</ele>
      </trkpt>
      <trkpt lat="46.49232676" lon="7.64973048">
        <ele>1774.69</ele>
      </trkpt>
      <trkpt lat="46.49231323" lon="7.64962233">
        <ele>1776.04</ele>
      </trkpt>
      <trkpt lat="46.49231656" lon="7.6495526">
        <ele>1777.35</ele>
      </trkpt>
      <trkpt lat="46.492339" lon="7.64946377">
        <ele>1779.13</ele>
      </trkpt>
      <trkpt lat="46.49234379" lon="7.64944442">
        <ele>1779.46</ele>
      </trkpt>
      <trkpt lat="46.49225546" lon="7.6493986">
        <ele>1784.73</ele>
      </trkpt>
    </trkseg>
  </trk>
</gpx>