<?xml version="1.0"?>
<gpx xmlns="http://www.topografix.com/GPX/1/1" xmlns:xsi="http://www.w3.org/2001/XMLSchema-instance" version="1.1" creator="AllTrails.com" xsi:schemaLocation="http://www.topografix.com/GPX/1/1 http://www.topografix.com/GPX/1/1/gpx.xsd">
  <metadata>
    <name><![CDATA[Klettersteig Graustock]]></name>
    <desc><![CDATA[]]></desc>
    <link href="http://www.alltrails.com">
      <text>AllTrails, LLC</text>
    </link>
    <bounds minlat="46.77824" minlon="8.36832" maxlat="46.78824" maxlon="8.38622"/>
  </metadata>
  <trk>
    <name><![CDATA[Klettersteig Graustock]]></name>
    <src>AllTrails</src>
    <trkseg>
      <trkpt lat="46.77835" lon="8.38622">
        <ele>2220.21</ele>
      </trkpt>
      <trkpt lat="46.77838" lon="8.3862">
        <ele>2220.55</ele>
      </trkpt>
      <trkpt lat="46.77847" lon="8.38618">
        <ele>2221.47</ele>
      </trkpt>
      <trkpt lat="46.77858" lon="8.38569">
        <ele>2229.88</ele>
      </trkpt>
      <trkpt lat="46.77874" lon="8.38557">
        <ele>2231.35</ele>
      </trkpt>
      <trkpt lat="46.77886" lon="8.38536">
        <ele>2229.95</ele>
      </trkpt>
      <trkpt lat="46.779" lon="8.3849">
        <ele>2234.07</ele>
      </trkpt>
      <trkpt lat="46.77902" lon="8.38455">
        <ele>2233.79</ele>
      </trkpt>
      <trkpt lat="46.77907" lon="8.38453">
        <ele>2235.49</ele>
      </trkpt>
      <trkpt lat="46.77924" lon="8.38432">
        <ele>2240.63</ele>
      </trkpt>
      <trkpt lat="46.77929" lon="8.38425">
        <ele>2242.75</ele>
      </trkpt>
      <trkpt lat="46.77931" lon="8.38416">
        <ele>2244.25</ele>
      </trkpt>
      <trkpt lat="46.77935" lon="8.3841">
        <ele>2246.71</ele>
      </trkpt>
      <trkpt lat="46.77935" lon="8.38408">
        <ele>2246.85</ele>
      </trkpt>
      <trkpt lat="46.77938" lon="8.38402">
        <ele>2249.13</ele>
      </trkpt>
      <trkpt lat="46.77941" lon="8.38404">
        <ele>2250.75</ele>
      </trkpt>
      <trkpt lat="46.77943" lon="8.38398">
        <ele>2252.75</ele>
      </trkpt>
      <trkpt lat="46.77945" lon="8.38402">
        <ele>2253.12</ele>
      </trkpt>
      <trkpt lat="46.77946" lon="8.38403">
        <ele>2252.99</ele>
      </trkpt>
      <trkpt lat="46.77946" lon="8.384">
        <ele>2253.44</ele>
      </trkpt>
      <trkpt lat="46.77949" lon="8.38404">
        <ele>2252.88</ele>
      </trkpt>
      <trkpt lat="46.7795" lon="8.38397">
        <ele>2254.06</ele>
      </trkpt>
      <trkpt lat="46.77955" lon="8.38396">
        <ele>2254.44</ele>
      </trkpt>
      <trkpt lat="46.77956" lon="8.38389">
        <ele>2255.81</ele>
      </trkpt>
      <trkpt lat="46.7796" lon="8.38384">
        <ele>2256.49</ele>
      </trkpt>
      <trkpt lat="46.77967" lon="8.38383">
        <ele>2257.18</ele>
      </trkpt>
      <trkpt lat="46.77968" lon="8.38377">
        <ele>2257.85</ele>
      </trkpt>
      <trkpt lat="46.77974" lon="8.38364">
        <ele>2259.67</ele>
      </trkpt>
      <trkpt lat="46.77977" lon="8.38349">
        <ele>2261.59</ele>
      </trkpt>
      <trkpt lat="46.77981" lon="8.38336">
        <ele>2263.04</ele>
      </trkpt>
      <trkpt lat="46.77982" lon="8.38313">
        <ele>2266.82</ele>
      </trkpt>
      <trkpt lat="46.77985" lon="8.38301">
        <ele>2269.48</ele>
      </trkpt>
      <trkpt lat="46.77989" lon="8.38294">
        <ele>2271.63</ele>
      </trkpt>
      <trkpt lat="46.77993" lon="8.3829">
        <ele>2273.42</ele>
      </trkpt>
      <trkpt lat="46.77995" lon="8.38282">
        <ele>2275.55</ele>
      </trkpt>
      <trkpt lat="46.77999" lon="8.38266">
        <ele>2278.42</ele>
      </trkpt>
      <trkpt lat="46.78001" lon="8.38264">
        <ele>2279.12</ele>
      </trkpt>
      <trkpt lat="46.78005" lon="8.38253">
        <ele>2280.91</ele>
      </trkpt>
      <trkpt lat="46.78007" lon="8.3825">
        <ele>2281.76</ele>
      </trkpt>
      <trkpt lat="46.78005" lon="8.38238">
        <ele>2281.14</ele>
      </trkpt>
      <trkpt lat="46.78009" lon="8.38239">
        <ele>2282.39</ele>
      </trkpt>
      <trkpt lat="46.78015" lon="8.38232">
        <ele>2284.53</ele>
      </trkpt>
      <trkpt lat="46.78019" lon="8.38229">
        <ele>2286.1</ele>
      </trkpt>
      <trkpt lat="46.78038" lon="8.38233">
        <ele>2293.44</ele>
      </trkpt>
      <trkpt lat="46.78043" lon="8.38238">
        <ele>2294.26</ele>
      </trkpt>
      <trkpt lat="46.78047" lon="8.38235">
        <ele>2296.83</ele>
      </trkpt>
      <trkpt lat="46.7805" lon="8.38236">
        <ele>2297.74</ele>
      </trkpt>
      <trkpt lat="46.78052" lon="8.38233">
        <ele>2299.74</ele>
      </trkpt>
      <trkpt lat="46.78056" lon="8.38231">
        <ele>2302.32</ele>
      </trkpt>
      <trkpt lat="46.78057" lon="8.38227">
        <ele>2304.2</ele>
      </trkpt>
      <trkpt lat="46.78067" lon="8.38219">
        <ele>2307.43</ele>
      </trkpt>
      <trkpt lat="46.78071" lon="8.38218">
        <ele>2308.01</ele>
      </trkpt>
      <trkpt lat="46.78075" lon="8.38219">
        <ele>2308.42</ele>
      </trkpt>
      <trkpt lat="46.78084" lon="8.38213">
        <ele>2310.5</ele>
      </trkpt>
      <trkpt lat="46.78094" lon="8.38212">
        <ele>2313.26</ele>
      </trkpt>
      <trkpt lat="46.781" lon="8.382">
        <ele>2316.04</ele>
      </trkpt>
      <trkpt lat="46.78104" lon="8.38196">
        <ele>2317.32</ele>
      </trkpt>
      <trkpt lat="46.78107" lon="8.38195">
        <ele>2318.07</ele>
      </trkpt>
      <trkpt lat="46.78108" lon="8.38193">
        <ele>2318.31</ele>
      </trkpt>
      <trkpt lat="46.7811" lon="8.38197">
        <ele>2318.57</ele>
      </trkpt>
      <trkpt lat="46.7811" lon="8.38192">
        <ele>2318.75</ele>
      </trkpt>
      <trkpt lat="46.78112" lon="8.38195">
        <ele>2318.89</ele>
      </trkpt>
      <trkpt lat="46.78114" lon="8.38189">
        <ele>2318.93</ele>
      </trkpt>
      <trkpt lat="46.78116" lon="8.38183">
        <ele>2319.16</ele>
      </trkpt>
      <trkpt lat="46.78118" lon="8.38179">
        <ele>2319.47</ele>
      </trkpt>
      <trkpt lat="46.78123" lon="8.38174">
        <ele>2320.35</ele>
      </trkpt>
      <trkpt lat="46.78144" lon="8.3816">
        <ele>2325.62</ele>
      </trkpt>
      <trkpt lat="46.78155" lon="8.3816">
        <ele>2328.58</ele>
      </trkpt>
      <trkpt lat="46.78159" lon="8.38144">
        <ele>2331.07</ele>
      </trkpt>
      <trkpt lat="46.78179" lon="8.38122">
        <ele>2344.09</ele>
      </trkpt>
      <trkpt lat="46.78182" lon="8.38113">
        <ele>2347.95</ele>
      </trkpt>
      <trkpt lat="46.78188" lon="8.38109">
        <ele>2351.37</ele>
      </trkpt>
      <trkpt lat="46.7819" lon="8.38121">
        <ele>2348.5</ele>
      </trkpt>
      <trkpt lat="46.78194" lon="8.38104">
        <ele>2355.62</ele>
      </trkpt>
      <trkpt lat="46.78196" lon="8.38083">
        <ele>2364.63</ele>
      </trkpt>
      <trkpt lat="46.78198" lon="8.3806">
        <ele>2363.04</ele>
      </trkpt>
      <trkpt lat="46.78201" lon="8.38056">
        <ele>2364.75</ele>
      </trkpt>
      <trkpt lat="46.78205" lon="8.38063">
        <ele>2367.86</ele>
      </trkpt>
      <trkpt lat="46.78207" lon="8.38101">
        <ele>2363.87</ele>
      </trkpt>
      <trkpt lat="46.78212" lon="8.38096">
        <ele>2368.01</ele>
      </trkpt>
      <trkpt lat="46.78222" lon="8.3807">
        <ele>2377.79</ele>
      </trkpt>
      <trkpt lat="46.78228" lon="8.38062">
        <ele>2380.75</ele>
      </trkpt>
      <trkpt lat="46.78234" lon="8.38046">
        <ele>2384.99</ele>
      </trkpt>
      <trkpt lat="46.78236" lon="8.38047">
        <ele>2385.54</ele>
      </trkpt>
      <trkpt lat="46.78248" lon="8.38039">
        <ele>2390.69</ele>
      </trkpt>
      <trkpt lat="46.78251" lon="8.38025">
        <ele>2395.66</ele>
      </trkpt>
      <trkpt lat="46.78253" lon="8.38025">
        <ele>2397.18</ele>
      </trkpt>
      <trkpt lat="46.78255" lon="8.38022">
        <ele>2400.38</ele>
      </trkpt>
      <trkpt lat="46.78264" lon="8.38018">
        <ele>2407.91</ele>
      </trkpt>
      <trkpt lat="46.78265" lon="8.38006">
        <ele>2412.27</ele>
      </trkpt>
      <trkpt lat="46.78265" lon="8.37993">
        <ele>2418.09</ele>
      </trkpt>
      <trkpt lat="46.78274" lon="8.37986">
        <ele>2427.72</ele>
      </trkpt>
      <trkpt lat="46.78278" lon="8.37989">
        <ele>2427.23</ele>
      </trkpt>
      <trkpt lat="46.78281" lon="8.37985">
        <ele>2432.88</ele>
      </trkpt>
      <trkpt lat="46.78286" lon="8.37987">
        <ele>2434.03</ele>
      </trkpt>
      <trkpt lat="46.7829" lon="8.37983">
        <ele>2439.19</ele>
      </trkpt>
      <trkpt lat="46.78291" lon="8.37988">
        <ele>2436.36</ele>
      </trkpt>
      <trkpt lat="46.783" lon="8.37992">
        <ele>2440.26</ele>
      </trkpt>
      <trkpt lat="46.78304" lon="8.37988">
        <ele>2444.48</ele>
      </trkpt>
      <trkpt lat="46.78306" lon="8.37984">
        <ele>2446.76</ele>
      </trkpt>
      <trkpt lat="46.78307" lon="8.37976">
        <ele>2449.49</ele>
      </trkpt>
      <trkpt lat="46.78316" lon="8.37958">
        <ele>2460.59</ele>
      </trkpt>
      <trkpt lat="46.78321" lon="8.3795">
        <ele>2465.74</ele>
      </trkpt>
      <trkpt lat="46.78325" lon="8.37943">
        <ele>2470.18</ele>
      </trkpt>
      <trkpt lat="46.78335" lon="8.37927">
        <ele>2485.37</ele>
      </trkpt>
      <trkpt lat="46.78334" lon="8.37922">
        <ele>2488.43</ele>
      </trkpt>
      <trkpt lat="46.78337" lon="8.37909">
        <ele>2494.07</ele>
      </trkpt>
      <trkpt lat="46.78358" lon="8.37894">
        <ele>2498.91</ele>
      </trkpt>
      <trkpt lat="46.78371" lon="8.37893">
        <ele>2499.24</ele>
      </trkpt>
      <trkpt lat="46.78407" lon="8.37874">
        <ele>2498.14</ele>
      </trkpt>
      <trkpt lat="46.78454" lon="8.37853">
        <ele>2493.06</ele>
      </trkpt>
      <trkpt lat="46.78488" lon="8.37843">
        <ele>2497.19</ele>
      </trkpt>
      <trkpt lat="46.78506" lon="8.37802">
        <ele>2497.22</ele>
      </trkpt>
      <trkpt lat="46.78527" lon="8.37749">
        <ele>2501.16</ele>
      </trkpt>
      <trkpt lat="46.78537" lon="8.37732">
        <ele>2501.76</ele>
      </trkpt>
      <trkpt lat="46.7854" lon="8.3772">
        <ele>2501.22</ele>
      </trkpt>
      <trkpt lat="46.78558" lon="8.37696">
        <ele>2509.25</ele>
      </trkpt>
      <trkpt lat="46.78573" lon="8.37668">
        <ele>2507.09</ele>
      </trkpt>
      <trkpt lat="46.78591" lon="8.37617">
        <ele>2499.71</ele>
      </trkpt>
      <trkpt lat="46.78613" lon="8.37569">
        <ele>2475.14</ele>
      </trkpt>
      <trkpt lat="46.78614" lon="8.37554">
        <ele>2475.01</ele>
      </trkpt>
      <trkpt lat="46.78617" lon="8.3755">
        <ele>2471.95</ele>
      </trkpt>
      <trkpt lat="46.78618" lon="8.37542">
        <ele>2470.8</ele>
      </trkpt>
      <trkpt lat="46.78616" lon="8.37538">
        <ele>2471.87</ele>
      </trkpt>
      <trkpt lat="46.78613" lon="8.3753">
        <ele>2472.56</ele>
      </trkpt>
      <trkpt lat="46.78618" lon="8.37516">
        <ele>2475.68</ele>
      </trkpt>
      <trkpt lat="46.78625" lon="8.37505">
        <ele>2478.57</ele>
      </trkpt>
      <trkpt lat="46.78632" lon="8.37497">
        <ele>2480.52</ele>
      </trkpt>
      <trkpt lat="46.78649" lon="8.37471">
        <ele>2492.69</ele>
      </trkpt>
      <trkpt lat="46.78662" lon="8.37448">
        <ele>2537.54</ele>
      </trkpt>
      <trkpt lat="46.7868" lon="8.37407">
        <ele>2601.48</ele>
      </trkpt>
      <trkpt lat="46.78691" lon="8.37392">
        <ele>2600.22</ele>
      </trkpt>
      <trkpt lat="46.78714" lon="8.37342">
        <ele>2596.34</ele>
      </trkpt>
      <trkpt lat="46.78734" lon="8.37299">
        <ele>2597.27</ele>
      </trkpt>
      <trkpt lat="46.78764" lon="8.37236">
        <ele>2577.71</ele>
      </trkpt>
      <trkpt lat="46.78793" lon="8.37171">
        <ele>2461.13</ele>
      </trkpt>
      <trkpt lat="46.78809" lon="8.37122">
        <ele>2403.12</ele>
      </trkpt>
      <trkpt lat="46.78822" lon="8.37069">
        <ele>2355.2</ele>
      </trkpt>
      <trkpt lat="46.78819" lon="8.37032">
        <ele>2366.41</ele>
      </trkpt>
      <trkpt lat="46.78824" lon="8.37002">
        <ele>2363.18</ele>
      </trkpt>
      <trkpt lat="46.78824" lon="8.36965">
        <ele>2424.36</ele>
      </trkpt>
      <trkpt lat="46.78822" lon="8.36942">
        <ele>2455.85</ele>
      </trkpt>
      <trkpt lat="46.78807" lon="8.36914">
        <ele>2501.12</ele>
      </trkpt>
      <trkpt lat="46.78793" lon="8.36885">
        <ele>2532.14</ele>
      </trkpt>
      <trkpt lat="46.7879" lon="8.36859">
        <ele>2547.19</ele>
      </trkpt>
      <trkpt lat="46.78784" lon="8.36832">
        <ele>2567.01</ele>
      </trkpt>
      <trkpt lat="46.7879" lon="8.36859">
        <ele>2547.19</ele>
      </trkpt>
      <trkpt lat="46.78793" lon="8.36885">
        <ele>2532.14</ele>
      </trkpt>
      <trkpt lat="46.78807" lon="8.36914">
        <ele>2501.12</ele>
      </trkpt>
      <trkpt lat="46.78822" lon="8.36942">
        <ele>2455.85</ele>
      </trkpt>
      <trkpt lat="46.78824" lon="8.36965">
        <ele>2424.36</ele>
      </trkpt>
      <trkpt lat="46.78824" lon="8.37002">
        <ele>2363.18</ele>
      </trkpt>
      <trkpt lat="46.78819" lon="8.37032">
        <ele>2366.41</ele>
      </trkpt>
      <trkpt lat="46.78822" lon="8.37069">
        <ele>2355.2</ele>
      </trkpt>
      <trkpt lat="46.78809" lon="8.37122">
        <ele>2403.12</ele>
      </trkpt>
      <trkpt lat="46.78793" lon="8.37171">
        <ele>2461.13</ele>
      </trkpt>
      <trkpt lat="46.78764" lon="8.37236">
        <ele>2577.71</ele>
      </trkpt>
      <trkpt lat="46.78734" lon="8.37299">
        <ele>2597.27</ele>
      </trkpt>
      <trkpt lat="46.78712" lon="8.37299">
        <ele>2594.46</ele>
      </trkpt>
      <trkpt lat="46.7871" lon="8.37285">
        <ele>2591.0</ele>
      </trkpt>
      <trkpt lat="46.78694" lon="8.37274">
        <ele>2584.66</ele>
      </trkpt>
      <trkpt lat="46.78683" lon="8.37276">
        <ele>2582.54</ele>
      </trkpt>
      <trkpt lat="46.7866" lon="8.37264">
        <ele>2573.7</ele>
      </trkpt>
      <trkpt lat="46.7863" lon="8.37274">
        <ele>2572.49</ele>
      </trkpt>
      <trkpt lat="46.78596" lon="8.37266">
        <ele>2562.26</ele>
      </trkpt>
      <trkpt lat="46.78585" lon="8.37266">
        <ele>2559.83</ele>
      </trkpt>
      <trkpt lat="46.78541" lon="8.37233">
        <ele>2536.88</ele>
      </trkpt>
      <trkpt lat="46.78527" lon="8.37221">
        <ele>2533.55</ele>
      </trkpt>
      <trkpt lat="46.78515" lon="8.37188">
        <ele>2518.07</ele>
      </trkpt>
      <trkpt lat="46.78517" lon="8.37177">
        <ele>2520.08</ele>
      </trkpt>
      <trkpt lat="46.78487" lon="8.37102">
        <ele>2481.46</ele>
      </trkpt>
      <trkpt lat="46.78463" lon="8.3704">
        <ele>2460.06</ele>
      </trkpt>
      <trkpt lat="46.78454" lon="8.37034">
        <ele>2445.46</ele>
      </trkpt>
      <trkpt lat="46.78499" lon="8.36928">
        <ele>2439.03</ele>
      </trkpt>
      <trkpt lat="46.78467" lon="8.36899">
        <ele>2426.38</ele>
      </trkpt>
      <trkpt lat="46.78467" lon="8.36891">
        <ele>2425.34</ele>
      </trkpt>
      <trkpt lat="46.78451" lon="8.36887">
        <ele>2422.01</ele>
      </trkpt>
      <trkpt lat="46.78429" lon="8.36881">
        <ele>2418.92</ele>
      </trkpt>
      <trkpt lat="46.78413" lon="8.36866">
        <ele>2416.11</ele>
      </trkpt>
      <trkpt lat="46.78387" lon="8.36862">
        <ele>2408.82</ele>
      </trkpt>
      <trkpt lat="46.78381" lon="8.36891">
        <ele>2400.26</ele>
      </trkpt>
      <trkpt lat="46.78383" lon="8.36925">
        <ele>2394.34</ele>
      </trkpt>
      <trkpt lat="46.78388" lon="8.36933">
        <ele>2396.12</ele>
      </trkpt>
      <trkpt lat="46.78383" lon="8.36948">
        <ele>2390.88</ele>
      </trkpt>
      <trkpt lat="46.78376" lon="8.36952">
        <ele>2386.02</ele>
      </trkpt>
      <trkpt lat="46.78375" lon="8.36962">
        <ele>2383.97</ele>
      </trkpt>
      <trkpt lat="46.78364" lon="8.36967">
        <ele>2376.52</ele>
      </trkpt>
      <trkpt lat="46.78351" lon="8.37014">
        <ele>2354.83</ele>
      </trkpt>
      <trkpt lat="46.78313" lon="8.37043">
        <ele>2328.15</ele>
      </trkpt>
      <trkpt lat="46.78271" lon="8.37073">
        <ele>2319.49</ele>
      </trkpt>
      <trkpt lat="46.78243" lon="8.37097">
        <ele>2322.6</ele>
      </trkpt>
      <trkpt lat="46.7818" lon="8.37098">
        <ele>2324.02</ele>
      </trkpt>
      <trkpt lat="46.78154" lon="8.37149">
        <ele>2323.18</ele>
      </trkpt>
      <trkpt lat="46.78132" lon="8.37191">
        <ele>2321.38</ele>
      </trkpt>
      <trkpt lat="46.78102" lon="8.37217">
        <ele>2322.44</ele>
      </trkpt>
      <trkpt lat="46.78077" lon="8.37235">
        <ele>2324.27</ele>
      </trkpt>
      <trkpt lat="46.78062" lon="8.37241">
        <ele>2325.37</ele>
      </trkpt>
      <trkpt lat="46.78067" lon="8.37268">
        <ele>2327.27</ele>
      </trkpt>
      <trkpt lat="46.78071" lon="8.37277">
        <ele>2327.82</ele>
      </trkpt>
      <trkpt lat="46.78069" lon="8.37283">
        <ele>2328.11</ele>
      </trkpt>
      <trkpt lat="46.78062" lon="8.37289">
        <ele>2328.2</ele>
      </trkpt>
      <trkpt lat="46.78056" lon="8.37298">
        <ele>2327.57</ele>
      </trkpt>
      <trkpt lat="46.78054" lon="8.37299">
        <ele>2326.82</ele>
      </trkpt>
      <trkpt lat="46.78049" lon="8.37295">
        <ele>2324.89</ele>
      </trkpt>
      <trkpt lat="46.78045" lon="8.3729">
        <ele>2323.3</ele>
      </trkpt>
      <trkpt lat="46.78043" lon="8.37291">
        <ele>2322.37</ele>
      </trkpt>
      <trkpt lat="46.78032" lon="8.37307">
        <ele>2317.74</ele>
      </trkpt>
      <trkpt lat="46.78027" lon="8.37323">
        <ele>2315.86</ele>
      </trkpt>
      <trkpt lat="46.78022" lon="8.37359">
        <ele>2308.02</ele>
      </trkpt>
      <trkpt lat="46.78025" lon="8.37365">
        <ele>2311.08</ele>
      </trkpt>
      <trkpt lat="46.78023" lon="8.37375">
        <ele>2309.0</ele>
      </trkpt>
      <trkpt lat="46.78025" lon="8.37381">
        <ele>2311.43</ele>
      </trkpt>
      <trkpt lat="46.78023" lon="8.37388">
        <ele>2309.14</ele>
      </trkpt>
      <trkpt lat="46.78026" lon="8.37399">
        <ele>2310.37</ele>
      </trkpt>
      <trkpt lat="46.78026" lon="8.37415">
        <ele>2306.48</ele>
      </trkpt>
      <trkpt lat="46.78029" lon="8.37424">
        <ele>2307.58</ele>
      </trkpt>
      <trkpt lat="46.78029" lon="8.37437">
        <ele>2305.28</ele>
      </trkpt>
      <trkpt lat="46.78024" lon="8.37447">
        <ele>2299.04</ele>
      </trkpt>
      <trkpt lat="46.78023" lon="8.37462">
        <ele>2295.69</ele>
      </trkpt>
      <trkpt lat="46.78028" lon="8.37494">
        <ele>2294.25</ele>
      </trkpt>
      <trkpt lat="46.78035" lon="8.37526">
        <ele>2292.38</ele>
      </trkpt>
      <trkpt lat="46.78038" lon="8.37536">
        <ele>2292.98</ele>
      </trkpt>
      <trkpt lat="46.78035" lon="8.37554">
        <ele>2287.26</ele>
      </trkpt>
      <trkpt lat="46.78038" lon="8.37576">
        <ele>2285.83</ele>
      </trkpt>
      <trkpt lat="46.78037" lon="8.3759">
        <ele>2283.1</ele>
      </trkpt>
      <trkpt lat="46.78032" lon="8.37626">
        <ele>2272.88</ele>
      </trkpt>
      <trkpt lat="46.78029" lon="8.37668">
        <ele>2261.73</ele>
      </trkpt>
      <trkpt lat="46.78024" lon="8.37676">
        <ele>2257.93</ele>
      </trkpt>
      <trkpt lat="46.78022" lon="8.37688">
        <ele>2255.65</ele>
      </trkpt>
      <trkpt lat="46.78024" lon="8.37704">
        <ele>2256.23</ele>
      </trkpt>
      <trkpt lat="46.7802" lon="8.37722">
        <ele>2255.63</ele>
      </trkpt>
      <trkpt lat="46.7801" lon="8.37747">
        <ele>2251.57</ele>
      </trkpt>
      <trkpt lat="46.78006" lon="8.3778">
        <ele>2250.63</ele>
      </trkpt>
      <trkpt lat="46.77992" lon="8.37785">
        <ele>2248.99</ele>
      </trkpt>
      <trkpt lat="46.77989" lon="8.37789">
        <ele>2248.49</ele>
      </trkpt>
      <trkpt lat="46.77988" lon="8.37801">
        <ele>2247.98</ele>
      </trkpt>
      <trkpt lat="46.7798" lon="8.37816">
        <ele>2245.77</ele>
      </trkpt>
      <trkpt lat="46.77974" lon="8.37821">
        <ele>2245.11</ele>
      </trkpt>
      <trkpt lat="46.77968" lon="8.37826">
        <ele>2244.06</ele>
      </trkpt>
      <trkpt lat="46.77966" lon="8.37835">
        <ele>2243.36</ele>
      </trkpt>
      <trkpt lat="46.77961" lon="8.37843">
        <ele>2241.68</ele>
      </trkpt>
      <trkpt lat="46.77959" lon="8.37849">
        <ele>2240.84</ele>
      </trkpt>
      <trkpt lat="46.77946" lon="8.37858">
        <ele>2236.67</ele>
      </trkpt>
      <trkpt lat="46.77938" lon="8.37906">
        <ele>2235.82</ele>
      </trkpt>
      <trkpt lat="46.7794" lon="8.37932">
        <ele>2235.44</ele>
      </trkpt>
      <trkpt lat="46.77944" lon="8.37959">
        <ele>2235.73</ele>
      </trkpt>
      <trkpt lat="46.77946" lon="8.37973">
        <ele>2235.59</ele>
      </trkpt>
      <trkpt lat="46.77946" lon="8.37995">
        <ele>2234.89</ele>
      </trkpt>
      <trkpt lat="46.77948" lon="8.38024">
        <ele>2234.27</ele>
      </trkpt>
      <trkpt lat="46.77947" lon="8.38033">
        <ele>2233.66</ele>
      </trkpt>
      <trkpt lat="46.77943" lon="8.38052">
        <ele>2231.94</ele>
      </trkpt>
      <trkpt lat="46.77944" lon="8.38058">
        <ele>2233.23</ele>
      </trkpt>
      <trkpt lat="46.77941" lon="8.38065">
        <ele>2232.56</ele>
      </trkpt>
      <trkpt lat="46.77939" lon="8.38081">
        <ele>2233.89</ele>
      </trkpt>
      <trkpt lat="46.77932" lon="8.38096">
        <ele>2227.74</ele>
      </trkpt>
      <trkpt lat="46.77932" lon="8.38103">
        <ele>2227.47</ele>
      </trkpt>
      <trkpt lat="46.77935" lon="8.38112">
        <ele>2229.57</ele>
      </trkpt>
      <trkpt lat="46.77932" lon="8.38121">
        <ele>2227.7</ele>
      </trkpt>
      <trkpt lat="46.77931" lon="8.38137">
        <ele>2227.76</ele>
      </trkpt>
      <trkpt lat="46.77924" lon="8.38168">
        <ele>2222.53</ele>
      </trkpt>
      <trkpt lat="46.77917" lon="8.38189">
        <ele>2217.24</ele>
      </trkpt>
      <trkpt lat="46.77917" lon="8.38196">
        <ele>2217.35</ele>
      </trkpt>
      <trkpt lat="46.77909" lon="8.38222">
        <ele>2214.29</ele>
      </trkpt>
      <trkpt lat="46.77908" lon="8.38228">
        <ele>2214.13</ele>
      </trkpt>
      <trkpt lat="46.77897" lon="8.38261">
        <ele>2208.75</ele>
      </trkpt>
      <trkpt lat="46.77886" lon="8.38298">
        <ele>2203.37</ele>
      </trkpt>
      <trkpt lat="46.77884" lon="8.38304">
        <ele>2202.79</ele>
      </trkpt>
      <trkpt lat="46.77883" lon="8.38313">
        <ele>2203.64</ele>
      </trkpt>
      <trkpt lat="46.7788" lon="8.38335">
        <ele>2206.1</ele>
      </trkpt>
      <trkpt lat="46.77875" lon="8.3835">
        <ele>2207.3</ele>
      </trkpt>
      <trkpt lat="46.77871" lon="8.38355">
        <ele>2207.19</ele>
      </trkpt>
      <trkpt lat="46.77859" lon="8.38365">
        <ele>2206.13</ele>
      </trkpt>
      <trkpt lat="46.77852" lon="8.38374">
        <ele>2205.53</ele>
      </trkpt>
      <trkpt lat="46.77848" lon="8.38378">
        <ele>2204.83</ele>
      </trkpt>
      <trkpt lat="46.77839" lon="8.38407">
        <ele>2206.77</ele>
      </trkpt>
      <trkpt lat="46.77832" lon="8.38423">
        <ele>2206.48</ele>
      </trkpt>
      <trkpt lat="46.7783" lon="8.38456">
        <ele>2210.78</ele>
      </trkpt>
      <trkpt lat="46.77826" lon="8.38473">
        <ele>2212.7</ele>
      </trkpt>
      <trkpt lat="46.77826" lon="8.38481">
        <ele>2212.91</ele>
      </trkpt>
      <trkpt lat="46.77827" lon="8.3849">
        <ele>2213.35</ele>
      </trkpt>
      <trkpt lat="46.77824" lon="8.38518">
        <ele>2212.76</ele>
      </trkpt>
      <trkpt lat="46.77827" lon="8.38554">
        <ele>2215.79</ele>
      </trkpt>
      <trkpt lat="46.77832" lon="8.38566">
        <ele>2219.46</ele>
      </trkpt>
      <trkpt lat="46.77832" lon="8.38579">
        <ele>2219.86</ele>
      </trkpt>
      <trkpt lat="46.77832" lon="8.38587">
        <ele>2219.89</ele>
      </trkpt>
      <trkpt lat="46.77832" lon="8.38596">
        <ele>2219.65</ele>
      </trkpt>
      <trkpt lat="46.77832" lon="8.38604">
        <ele>2219.43</ele>
      </trkpt>
      <trkpt lat="46.77832" lon="8.38613">
        <ele>2219.24</ele>
      </trkpt>
      <trkpt lat="46.77835" lon="8.38622">
        <ele>2220.21</ele>
      </trkpt>
    </trkseg>
  </trk>
</gpx>
