<gpx xmlns="http://www.topografix.com/GPX/1/1" xmlns:xsi="http://www.w3.org/2001/XMLSchema-instance" xsi:schemaLocation="http://www.topografix.com/GPX/1/1 http://www.topografix.com/GPX/1/1/gpx.xsd" version="1.1" creator="OpenLayers"><wpt lat="46.492387648723025" lon="7.649409682987897"><name>Restaurant</name><type>marker</type></wpt><wpt lat="46.489239672996526" lon="7.660934772480249"><name>Cable car</name><type>marker</type></wpt><trk><type>linepolygon</type><trkseg><trkpt lat="46.492387648723025" lon="7.649409682987897"/><trkpt lat="46.492272853390176" lon="7.6488622058470215"/><trkpt lat="46.49256615453753" lon="7.646891169054848"/><trkpt lat="46.49127812161295" lon="7.645045139686655"/><trkpt lat="46.49108090282795" lon="7.64591866757421"/><trkpt lat="46.4903724288676" lon="7.646342130573477"/><trkpt lat="46.49013393979487" lon="7.647742635912857"/><trkpt lat="46.48837118504117" lon="7.651818757566846"/><trkpt lat="46.487100573548624" lon="7.651707764187106"/><trkpt lat="46.48644033271496" lon="7.65285194690985"/><trkpt lat="46.48311620520226" lon="7.653590821707674"/><trkpt lat="46.48257785240766" lon="7.65311810761514"/><trkpt lat="46.48017939383849" lon="7.651838123182359"/><trkpt lat="46.481463224695865" lon="7.6546840182566"/><trkpt lat="46.482038368130226" lon="7.6554382534812895"/><trkpt lat="46.4818675793275" lon="7.656215868812633"/><trkpt lat="46.481500492189205" lon="7.65623118923501"/><trkpt lat="46.48238509623353" lon="7.65809917622009"/><trkpt lat="46.48226019868829" lon="7.6585557759652145"/><trkpt lat="46.482705557687815" lon="7.658557576750847"/><trkpt lat="46.482237525671906" lon="7.659030557249593"/><trkpt lat="46.482686913046436" lon="7.660533847166447"/><trkpt lat="46.4824139731505" lon="7.66136704220526"/><trkpt lat="46.481307692840154" lon="7.661770466574146"/><trkpt lat="46.48188522676536" lon="7.662878088157705"/><trkpt lat="46.48238641801669" lon="7.662856747977623"/><trkpt lat="46.48222322941601" lon="7.663274698626333"/><trkpt lat="46.483628907861416" lon="7.663700977580266"/><trkpt lat="46.485041673591795" lon="7.663624345500089"/><trkpt lat="46.48529330407373" lon="7.663818410360994"/><trkpt lat="46.485454320532625" lon="7.664585659656487"/><trkpt lat="46.48604291095017" lon="7.6648873882451865"/><trkpt lat="46.48800931053933" lon="7.6638280641173075"/><trkpt lat="46.4892454540647" lon="7.662910155820062"/><trkpt lat="46.489239672996526" lon="7.660934772480249"/></trkseg></trk></gpx>